[
  {
    "name": "KUIPER-00230",
    "noradId": "68579",
    "line1": "1 68579U 26072G   26152.52691045  .00025961  00000+0  70215-3 0  9990",
    "line2": "2 68579  51.8762 252.4764 0002071 311.3326  48.7483 15.37535873  8970"
  },
  {
    "name": "KUIPER-00231",
    "noradId": "68580",
    "line1": "1 68580U 26072H   26154.47224270  .00047202  00000+0  12604-2 0  9999",
    "line2": "2 68580  51.8738 243.0172 0002127 321.0293  39.0540 15.37637672  9278"
  },
  {
    "name": "KUIPER-00234",
    "noradId": "68581",
    "line1": "1 68581U 26072J   26154.58353009 -.00004774  00000+0 -64882-3 0  9990",
    "line2": "2 68581  51.8987 249.8164 0001962 125.4803 353.5999 14.76510029  4139"
  },
  {
    "name": "KUIPER-00236",
    "noradId": "68582",
    "line1": "1 68582U 26072K   26154.48679366  .00020337  00000+0  55776-3 0  9990",
    "line2": "2 68582  51.8767 243.1168 0004095 339.9088  20.1737 15.37248391  9279"
  },
  {
    "name": "KUIPER-00244",
    "noradId": "68583",
    "line1": "1 68583U 26072L   26154.58353009 -.01194533  00000+0 -56313-1 0  9994",
    "line2": "2 68583  51.8847 243.0797 0003419 355.8178 345.1053 15.21879881  4848"
  },
  {
    "name": "KUIPER-00253",
    "noradId": "68584",
    "line1": "1 68584U 26072M   26154.58353009  .00006224  00000+0  45503-3 0  9992",
    "line2": "2 68584  51.8886 244.6286 0007530   8.0324 194.5603 15.04789364  5823"
  },
  {
    "name": "KUIPER-00254",
    "noradId": "68585",
    "line1": "1 68585U 26072N   26154.58353009 -.00066387  00000+0 -63233-2 0  9990",
    "line2": "2 68585  51.8950 246.2807 0008479   1.4827  81.2090 14.93183053  5698"
  },
  {
    "name": "KUIPER-00263",
    "noradId": "68586",
    "line1": "1 68586U 26072P   26154.47073006  .00030332  00000+0  80554-3 0  9990",
    "line2": "2 68586  51.8755 243.0118 0001758 245.7981 114.2822 15.38015362  9274"
  },
  {
    "name": "KUIPER-00269",
    "noradId": "68587",
    "line1": "1 68587U 26072Q   26154.47010152  .00046653  00000+0  11959-2 0  9999",
    "line2": "2 68587  51.8734 243.0004 0005629 320.7484  39.3094 15.38887066  9275"
  },
  {
    "name": "KUIPER-00272",
    "noradId": "68588",
    "line1": "1 68588U 26072R   26152.59415198  .00003593  00000+0  49913-3 0  9998",
    "line2": "2 68588  51.8976 262.0949 0000484  78.3709 281.7308 14.80011249  8844"
  },
  {
    "name": "KUIPER-00285",
    "noradId": "68589",
    "line1": "1 68589U 26072S   26152.79068862  .00032943  00000+0  85575-3 0  9998",
    "line2": "2 68589  51.8752 251.2419 0007477 322.9810  37.0660 15.38632083  9011"
  },
  {
    "name": "KUIPER-00286",
    "noradId": "68590",
    "line1": "1 68590U 26072T   26154.58353009  .00029696  00000+0  80798-3 0  9992",
    "line2": "2 68590  51.8725 242.4375 0004731 323.5916 311.9350 15.37270183  5902"
  },
  {
    "name": "KUIPER-00289",
    "noradId": "68591",
    "line1": "1 68591U 26072U   26154.58353009  .00029379  00000+0  10393-2 0  9994",
    "line2": "2 68591  51.8693 243.2748 0011616 350.4537 200.9876 15.28862878  5478"
  },
  {
    "name": "KUIPER-00290",
    "noradId": "68592",
    "line1": "1 68592U 26072V   26154.58353009 -.00811367  00000+0 -28058-1 0  9999",
    "line2": "2 68592  51.8661 243.2541 0013325 341.6181 234.9260 15.31731306  1308"
  },
  {
    "name": "KUIPER-00293",
    "noradId": "68593",
    "line1": "1 68593U 26072W   26154.58353009 -.00032166  00000+0 -38524-2 0  9992",
    "line2": "2 68593  51.8979 248.3543 0015549 357.7761 112.8945 14.83528110  2297"
  },
  {
    "name": "KUIPER-00294",
    "noradId": "68594",
    "line1": "1 68594U 26072X   26154.40431006  .00048920  00000+0  13595-2 0  9992",
    "line2": "2 68594  51.8669 244.0127 0011643 334.4546  25.5864 15.36319546  9252"
  },
  {
    "name": "KUIPER-00296",
    "noradId": "68595",
    "line1": "1 68595U 26072Y   26154.57205222  .00029990  00000+0  79914-3 0  9994",
    "line2": "2 68595  51.8717 242.9082 0006654 327.2594  32.7980 15.37900527  9281"
  },
  {
    "name": "KUIPER-00297",
    "noradId": "68596",
    "line1": "1 68596U 26072Z   26154.58353009 -.00023388  00000+0 -25283-2 0  9999",
    "line2": "2 68596  51.8964 247.2608 0009092   0.0378 117.8048 14.87605593  5907"
  },
  {
    "name": "KUIPER-00300",
    "noradId": "68597",
    "line1": "1 68597U 26072AA  26154.58353009 -.01809544  00000+0 -14488+0 0  9999",
    "line2": "2 68597  51.8872 245.0804 0008925 356.0173  97.9034 15.03311379  5392"
  },
  {
    "name": "KUIPER-00301",
    "noradId": "68598",
    "line1": "1 68598U 26072AB  26154.50886535  .00016331  00000+0  43908-3 0  9991",
    "line2": "2 68598  51.8655 243.2051 0010051 339.2435  20.8142 15.37990928  9279"
  },
  {
    "name": "KUIPER-00304",
    "noradId": "68599",
    "line1": "1 68599U 26072AC  26153.86625998  .00027409  00000+0  73812-3 0  9999",
    "line2": "2 68599  51.8660 246.4048 0010994 335.2651  24.7807 15.37585663  9175"
  },
  {
    "name": "KUIPER-00317",
    "noradId": "68600",
    "line1": "1 68600U 26072AD  26154.50586512  .00031014  00000+0  82368-3 0  9995",
    "line2": "2 68600  51.8695 243.2050 0009911 331.8994  28.1456 15.37960191  9275"
  },
  {
    "name": "KUIPER-00320",
    "noradId": "68601",
    "line1": "1 68601U 26072AE  26154.58353009 -.01169950  00000+0 -57417-1 0  9996",
    "line2": "2 68601  51.8747 243.7833 0011764 341.6824 291.0257 15.20357016  5519"
  },
  {
    "name": "KUIPER-00299",
    "noradId": "68864",
    "line1": "1 68864U 26095A   26154.58353009 -.00029162  00000+0 -17006-2 0  9992",
    "line2": "2 68864  51.8831 310.1855 0009298 270.9930 221.6880 15.11252004  5026"
  },
  {
    "name": "KUIPER-00353",
    "noradId": "68865",
    "line1": "1 68865U 26095B   26153.69783550  .00037025  00000+0  10050-2 0  9999",
    "line2": "2 68865  51.8861 312.1893 0001923 333.5145  26.5744 15.37242180  5501"
  },
  {
    "name": "KUIPER-00357",
    "noradId": "68866",
    "line1": "1 68866U 26095C   26154.58353009 -.00008261  00000+0 -25520-3 0  9992",
    "line2": "2 68866  51.8866 308.0872 0002180 243.5352 262.8737 15.31603785  5215"
  },
  {
    "name": "KUIPER-00364",
    "noradId": "68867",
    "line1": "1 68867U 26095D   26154.58353009 -.01093124  00000+0 -48744-1 0  9997",
    "line2": "2 68867  51.8863 308.6147 0001889 258.5437 358.2553 15.23976642  5615"
  },
  {
    "name": "KUIPER-00375",
    "noradId": "68868",
    "line1": "1 68868U 26095E   26153.69916645  .00034179  00000+0  92511-3 0  9995",
    "line2": "2 68868  51.8854 312.1946 0003686 208.2837 151.7950 15.37364729  5503"
  },
  {
    "name": "KUIPER-00433",
    "noradId": "68869",
    "line1": "1 68869U 26095F   26154.58353009 -.00046722  00000+0 -55897-2 0  9998",
    "line2": "2 68869  51.8996 313.2728 0006045 264.9954 261.4378 14.83833393  5604"
  },
  {
    "name": "KUIPER-00437",
    "noradId": "68870",
    "line1": "1 68870U 26095G   26153.92472618  .00032098  00000+0  86528-3 0  9990",
    "line2": "2 68870  51.8799 311.4513 0008259 248.7560 111.2545 15.37496000  5531"
  },
  {
    "name": "KUIPER-00448",
    "noradId": "68871",
    "line1": "1 68871U 26095H   26154.58353009 -.00004397  00000+0 -13681-3 0  9999",
    "line2": "2 68871  51.8874 308.1477 0003703 253.8433 198.9712 15.30054752  2557"
  },
  {
    "name": "KUIPER-00459",
    "noradId": "68872",
    "line1": "1 68872U 26095J   26153.69267958  .00019700  00000+0  57477-3 0  9991",
    "line2": "2 68872  51.8734 312.8653 0009764 257.1927 102.7968 15.35301584  5494"
  },
  {
    "name": "KUIPER-00468",
    "noradId": "68873",
    "line1": "1 68873U 26095K   26153.64915178  .00117140  00000+0  30398-2 0  9990",
    "line2": "2 68873  51.8839 312.6177 0005518 241.0534 118.9900 15.38070752  5497"
  },
  {
    "name": "KUIPER-00476",
    "noradId": "68874",
    "line1": "1 68874U 26095L   26153.75048890  .00024885  00000+0  71494-3 0  9997",
    "line2": "2 68874  51.8748 312.5145 0008119 242.2535 117.7628 15.35650598  5500"
  },
  {
    "name": "KUIPER-00478",
    "noradId": "68875",
    "line1": "1 68875U 26095M   26153.73659668  .00030125  00000+0  81877-3 0  9997",
    "line2": "2 68875  51.8779 312.4339 0007991 251.0765 108.9356 15.37277472  5507"
  },
  {
    "name": "KUIPER-00480",
    "noradId": "68876",
    "line1": "1 68876U 26095N   26153.65995639  .00047596  00000+0  12676-2 0  9990",
    "line2": "2 68876  51.8776 312.6732 0006610 234.6578 125.3792 15.37697574  5494"
  },
  {
    "name": "KUIPER-00482",
    "noradId": "68877",
    "line1": "1 68877U 26095P   26154.58353009 -.00005971  00000+0 -15038-3 0  9992",
    "line2": "2 68877  51.8853 307.9351 0001425 213.3858   0.9970 15.37319725  5360"
  },
  {
    "name": "KUIPER-00483",
    "noradId": "68878",
    "line1": "1 68878U 26095Q   26154.58353009 -.00044100  00000+0 -46824-2 0  9996",
    "line2": "2 68878  51.8984 312.3611 0011989 268.7562 190.4406 14.88622867  5691"
  },
  {
    "name": "KUIPER-00488",
    "noradId": "68879",
    "line1": "1 68879U 26095R   26153.69466346  .00028795  00000+0  82333-3 0  9993",
    "line2": "2 68879  51.8689 312.8643 0011320 258.0154 101.9563 15.35690011  5490"
  },
  {
    "name": "KUIPER-00489",
    "noradId": "68880",
    "line1": "1 68880U 26095S   26153.75143945  .00040855  00000+0  11555-2 0  9997",
    "line2": "2 68880  51.8760 312.5219 0010779 257.1948 102.7834 15.35862611  5505"
  },
  {
    "name": "KUIPER-00499",
    "noradId": "68881",
    "line1": "1 68881U 26095T   26153.69632487  .00040593  00000+0  11701-2 0  9997",
    "line2": "2 68881  51.8708 312.8817 0009361 238.1110 121.8966 15.35284652  5499"
  },
  {
    "name": "KUIPER-00500",
    "noradId": "68882",
    "line1": "1 68882U 26095U   26154.58353009 -.01222631  00000+0 -11353+0 0  9995",
    "line2": "2 68882  51.9141 311.2301 0003354 261.6042 178.3407 14.96983856  4397"
  },
  {
    "name": "KUIPER-00502",
    "noradId": "68883",
    "line1": "1 68883U 26095V   26153.65431846  .00039952  00000+0  10630-2 0  9998",
    "line2": "2 68883  51.8808 312.6437 0005585 249.5763 110.4624 15.37811019  5492"
  }
]